DONGPO 09               
1 54685U 22167D   26043.62845211  .00015118  00000+0  47414-3 0  9998
2 54685  97.6762 209.4388 0002671 188.9548 171.1647 15.33152772176344
DONGPO 08               
1 54686U 22167E   26043.60019972  .00014625  00000+0  49309-3 0  9991
2 54686  97.6718 207.1502 0008030 245.4152 114.6251 15.30805426176244
2022-167F               
1 54687U 22167F   26043.64176944  .00067909  00000+0  70568-3 0  9993
2 54687  97.6205 219.2853 0002143 143.7855 216.3549 15.64404457177212
DONGPO 10               
1 54689U 22167H   26043.60334918  .00014817  00000+0  48866-3 0  9994
2 54689  97.6804 208.8153 0005208 187.7742 172.3418 15.31535264176270
JILIN-1 GAOFEN 03D48    
1 54695U 22167P   26043.59300197  .00015513  00000+0  50138-3 0  9990
2 54695  97.6734 208.1570 0006581 195.0662 165.0384 15.32166780176290
STAR VIBE               
1 55009U 23001A   26043.61244632  .00016451  00000+0  42859-3 0  9995
2 55009  97.3354 107.7991 0005883 191.1213 168.9904 15.38924429173047
BRO-8                   
1 55011U 23001C   26043.59383111  .00028739  00000+0  68373-3 0  9992
2 55011  97.3409 107.5659 0006435 204.2471 155.8474 15.41575522172963
CONNECTA T1.2           
1 55012U 23001D   26043.12018958  .00022704  00000+0  50977-3 0  9993
2 55012  97.3457 112.2319 0006898 183.7533 176.3664 15.43356854173211
BIRKELAND               
1 55015U 23001G   26043.62640721  .00009713  00000+0  26517-3 0  9998
2 55015  97.3506 111.4097 0007116 180.7995 179.3240 15.37603308173198
ION SCV-008             
1 55051U 23001AU  26043.20210664  .00008968  00000+0  34201-3 0  9991
2 55051  97.5706 137.6225 0016810  93.8300 266.4860 15.26791108172256
ION SCV-007             
1 55060U 23001BD  26043.58685311  .00000543  00000+0  83354-4 0  9992
2 55060  97.9177 108.9914 0012842  24.7668 335.4156 14.77420061167856
HUYGENS                 
1 55093U 23001CN  26043.62648506  .00010280  00000+0  28020-3 0  9995
2 55093  97.3418 110.7952 0010529 164.0404 196.1175 15.37605206173216
SHARJAHSAT-1            
1 55104U 23001CZ  26043.63943988  .00019075  00000+0  41703-3 0  9995
2 55104  97.3354 111.0207 0006377 183.8746 176.2454 15.44187339173241
HORUS 1                 
1 55690U 23025A   26043.61620671  .00007679  00000+0  32398-3 0  9997
2 55690  97.3586 120.7631 0002407 141.7714 218.3695 15.23565433165084
HORUS 2                 
1 55844U 23032A   26043.58480043  .00007900  00000+0  33322-3 0  9994
2 55844  97.3653 121.4257 0003289 134.4433 225.7074 15.23564297162513
GLOBAL-19               
1 55982U 23041B   26043.51137252  .00020622  00000+0  53194-3 0  9996
2 55982  42.0003 209.2976 0002290 328.6570  31.4132 15.38731015162725
BRO-9                   
1 56185U 23054H   26043.57056095  .00044033  00000+0  46617-3 0  9991
2 56185  97.3080 315.5153 0005741 108.4700 251.7184 15.64009375159467
ION SCV-010             
1 56192U 23054Q   26043.60384568  .00005741  00000+0  23335-3 0  9997
2 56192  97.3956 294.6778 0011587 287.3242  72.6728 15.24887414157208
GHOST-1                 
1 56195U 23054T   26043.25760782  .00113569  00000+0  70845-3 0  9993
2 56195  97.3055 318.7415 0006984 100.9550 259.2501 15.76537475159631
TELEOS-2                
1 56310U 23057C   26042.11845340  .00006010  00000+0  45635-3 0  9994
2 56310   9.9898  42.1117 0000891 272.6590  87.3522 14.96429133153889
SNIPE 4                 
1 56744U 23072B   26043.57167340  .00023699  00000+0  65444-3 0  9992
2 56744  97.5367 246.0022 0007077  55.7338 304.4576 15.37042770150936
SNIPE 2                 
1 56745U 23072C   26043.60181752  .00027019  00000+0  67168-3 0  9995
2 56745  97.5373 248.3288 0006087  82.1960 277.9977 15.40259775151027
2023-072G               
1 56749U 23072G   26043.61767094  .00028771  00000+0  64387-3 0  9995
2 56749  97.5033 247.0673 0005416  73.3753 286.8089 15.43419846151208
OTTER PUP               
1 56933U 23084B   26043.37693289  .00126958  00000+0  84260-3 0  9998
2 56933  97.5762 196.8168 0003164 300.1750  59.9200 15.75097960149506
GEISAT PRECURSOR        
1 56934U 23084C   26043.40524363  .00009976  00000+0  31982-3 0  9992
2 56934  97.6008 180.5939 0006949  72.5270 287.6730 15.32538746148409
BLACKJACK ACES-3        
1 56950U 23084U   26041.89033261  .00007728  00000+0  35442-3 0  9991
2 56950  97.5996 176.1728 0006369  86.5822 273.6142 15.20711364147994
BLACKJACK ACES-2        
1 56955U 23084Z   26043.34470295  .00011026  00000+0  50780-3 0  9998
2 56955  97.5992 177.7258 0003425  90.7893 269.3734 15.20468046148227
BLACKJACK ACES-1        
1 56956U 23084AA  26041.95003711  .00009990  00000+0  45657-3 0  9993
2 56956  97.5972 176.1149 0004127  93.0662 267.1045 15.20760462 97735
ION SCV-011             
1 56957U 23084AB  26043.52515455  .00006472  00000+0  24434-3 0  9994
2 56957  98.1318 219.3956 0008573 108.1677 252.0495 15.27386170146774
GHOST-3                 
1 56958U 23084AC  26043.34358053  .00023058  00000+0  52253-3 0  9993
2 56958  97.6012 185.8015 0007499  28.8018 331.3642 15.43077366148731
TOMORROW-R2             
1 56962U 23084AG  26043.38262894  .00087890  00000+0  81715-3 0  9998
2 56962  97.5866 194.5371 0003963 345.1073  15.0070 15.67125329149328
AFR-1                   
1 56964U 23084AJ  26043.60588477  .00006514  00000+0  24666-3 0  9999
2 56964  97.6055 177.5742 0011874  61.3317 298.9114 15.27209739148203
DROID.001               
1 56965U 23084AK  26043.40250918  .00494218  10495-3  11035-2 0  9994
2 56965  97.5725 199.3101 0006333 297.3293  62.7338 15.97793988149641
METEOR-M2 3             
1 57166U 23091A   26043.59324956  .00000010  00000+0  23373-4 0  9990
2 57166  98.6271 101.0230 0004335 158.5919 201.5442 14.24034940136784
UMKA 1 (RS40S)          
1 57172U 23091G   26043.61198251  .00006766  00000+0  32398-3 0  9997
2 57172  97.5242 102.8202 0013064 187.7055 172.3981 15.19208177145085
2023-091H               
1 57173U 23091H   26043.56422819  .00013067  00000+0  51481-3 0  9998
2 57173  97.5232 105.9107 0010457 185.6772 174.4349 15.25679486145284
2023-091J               
1 57174U 23091J   26043.56185725  .00004756  00000+0  27293-3 0  9990
2 57174  97.5251  98.4023 0012728 212.7576 147.2867 15.12961298144784
CUBEBEL 2 (EU11S)       
1 57175U 23091K   26043.59729057  .00013474  00000+0  52600-3 0  9993
2 57175  97.5235 105.8885 0010472 187.7238 172.3840 15.25979410145281
SITRO-AIS 5 (KATYS)     
1 57176U 23091L   26043.57688346  .00014960  00000+0  57687-3 0  9998
2 57176  97.5243 106.4710 0012337 176.4890 183.6437 15.26343867145319
ZORKIY-2M 1             
1 57177U 23091M   26043.59706341  .00008499  00000+0  40737-3 0  9995
2 57177  97.5281 103.0097 0013760 185.2106 174.8987 15.19081595145076
CUBESX-HSE 3 (RS42S)    
1 57178U 23091N   26043.61611404  .00015976  00000+0  58921-3 0  9996
2 57178  97.5270 107.8407 0011963 167.5458 192.6079 15.27809781145386
MONITOR-3 (RS58S)       
1 57180U 23091Q   26043.58826551  .00013877  00000+0  55585-3 0  9997
2 57180  97.5264 106.2662 0012659 172.9725 187.1693 15.25087296145285
MONITOR-4 (RS57S)       
1 57182U 23091S   26043.57476648  .00014355  00000+0  57346-3 0  9995
2 57182  97.5258 106.2162 0012674 173.3439 186.7969 15.25169503145282
MONITOR-2 (RS39S)       
1 57184U 23091U   26043.62004543  .00005737  00000+0  28835-3 0  9999
2 57184  97.5265 102.7121 0011537 178.6952 181.4314 15.17594853145055
SVYATOBOR 1 (RS60S)     
1 57187U 23091X   26043.62690922  .00010437  00000+0  42984-3 0  9998
2 57187  97.5271 106.8646 0010338 163.0710 197.0874 15.24251835145322
HORS 1                  
1 57188U 23091Y   26043.61935162  .00010333  00000+0  42487-3 0  9999
2 57188  97.5250 106.6383 0009856 162.8750 197.2821 15.24312990145324
VIZARD-METEO (RS38S)    
1 57189U 23091Z   26043.62044064  .00017973  00000+0  58689-3 0  9991
2 57189  97.5259 110.9104 0008628 148.9026 211.2727 15.31783503145591
NANOZOND 1 (RS49S)      
1 57190U 23091AA  26043.63021926  .00133695  00000+0  12920-2 0  9993
2 57190  97.5148 122.0411 0002771 148.4079 211.7347 15.66014283146348
SITRO-AIS 6 (CHIRKIN)   
1 57192U 23091AC  26043.63546545  .00007278  00000+0  30270-3 0  9990
2 57192  97.5246 106.2199 0012716 175.2010 184.9351 15.24011285145303
SITRO-AIS 8 (ANOKHIN)   
1 57193U 23091AD  26043.59547977  .00016553  00000+0  59749-3 0  9994
2 57193  97.5236 107.6231 0011613 173.6796 186.4592 15.28514126145392
SITRO-AIS 7 (FARTUSHNIY)
1 57194U 23091AE  26043.61616398  .00008658  00000+0  36182-3 0  9995
2 57194  97.5246 106.0813 0012504 176.5654 183.5671 15.23790932145299
AVION KALUGA 650        
1 57195U 23091AF  26043.64640270  .00006968  00000+0  33719-3 0  9990
2 57195  97.5280 103.7505 0010786 177.1231 183.0067 15.18851416145112
HORS 2                  
1 57196U 23091AG  26043.59548078  .00016699  00000+0  60347-3 0  9997
2 57196  97.5262 109.1433 0009210 157.5192 202.6452 15.28495797145473
A-SEANSAT-PG1           
1 57197U 23091AH  26043.61060326  .00019769  00000+0  63323-3 0  9994
2 57197  97.5250 110.8659 0008578 155.9287 204.2357 15.32381167145600
SITRO-AIS 10 (BURDAEV)  
1 57199U 23091AK  26043.57602201  .00020901  00000+0  64354-3 0  9990
2 57199  97.5249 111.5128 0008229 151.2826 208.8871 15.33635577145632
SITRO-AIS 9 (SHCHUKIN)  
1 57201U 23091AM  26043.63358251  .00018836  00000+0  58679-3 0  9991
2 57201  97.5247 111.3849 0008260 151.7612 208.4080 15.33283908145630
UTMN 2 (RS27S)          
1 57203U 23091AP  26043.63900010  .00014339  00000+0  51538-3 0  9990
2 57203  97.5260 109.3435 0009345 153.5620 206.6098 15.28708164145492
SITRO-AIS 12 (SMIRENNIY)
1 57204U 23091AQ  26043.58066307  .00021083  00000+0  65130-3 0  9994
2 57204  97.5257 111.7267 0008169 145.9228 214.2540 15.33528274145643
SITRO-AIS 11 (SHEFFER)  
1 57208U 23091AU  26043.62444605  .00019319  00000+0  59117-3 0  9991
2 57208  97.5255 111.9495 0008109 145.8251 214.3514 15.33848663145660
